{
  "type": "FeatureCollection",
  "features": [
    {
      "type": "Feature",
      "properties": {
        "norad_id": 37867,
        "name": "COSMOS 2476 (744)",
        "group": "glo-ops",
        "lat": -34.33932687051437,
        "lon": 60.446816176640624,
        "alt_km": 19130.84924997516,
        "timestamp": "2025-12-22T11:33:20.700503+00:00",
        "meta_object_name": "COSMOS 2476 (744)",
        "meta_object_id": "2011-064A",
        "meta_epoch": "2025-12-19T06:05:26.552256",
        "meta_mean_motion": 2.13103916,
        "meta_eccentricity": 0.0024321,
        "meta_inclination": 65.1662,
        "meta_ra_of_asc_node": 78.9509,
        "meta_arg_of_pericenter": 234.6548,
        "meta_mean_anomaly": 130.4776,
        "meta_ephemeris_type": 0,
        "meta_classification_type": "U",
        "meta_norad_cat_id": 37867,
        "meta_element_set_no": 999,
        "meta_rev_at_epoch": 10993,
        "meta_bstar": 0,
        "meta_mean_motion_dot": -3e-07,
        "meta_mean_motion_ddot": 0,
        "tle_line1": "1 37867U 11064A   25353.25377954 -.00000030  00000+0  00000+0 0  9995",
        "tle_line2": "2 37867  65.1662  78.9509 0024321 234.6548 130.4776  2.13103916109937"
      },
      "geometry": {
        "type": "Point",
        "coordinates": [
          60.446816176640624,
          -34.33932687051437
        ]
      }
    },
    {
      "type": "Feature",
      "properties": {
        "norad_id": 37868,
        "name": "COSMOS 2477 (745)",
        "group": "glo-ops",
        "lat": 33.9802310043425,
        "lon": -119.21520642017502,
        "alt_km": 19128.924008735692,
        "timestamp": "2025-12-22T11:33:20.700514+00:00",
        "meta_object_name": "COSMOS 2477 (745)",
        "meta_object_id": "2011-064B",
        "meta_epoch": "2025-12-21T10:11:05.859168",
        "meta_mean_motion": 2.13103052,
        "meta_eccentricity": 0.00215188,
        "meta_inclination": 65.1732,
        "meta_ra_of_asc_node": 78.9552,
        "meta_arg_of_pericenter": 235.2861,
        "meta_mean_anomaly": 175.9616,
        "meta_ephemeris_type": 0,
        "meta_classification_type": "U",
        "meta_norad_cat_id": 37868,
        "meta_element_set_no": 999,
        "meta_rev_at_epoch": 10997,
        "meta_bstar": 0,
        "meta_mean_motion_dot": -9e-08,
        "meta_mean_motion_ddot": 0,
        "tle_line1": "1 37868U 11064B   25355.42437337 -.00000009  00000+0  00000+0 0  9995",
        "tle_line2": "2 37868  65.1732  78.9552 0021518 235.2861 175.9616  2.13103052109976"
      },
      "geometry": {
        "type": "Point",
        "coordinates": [
          -119.21520642017502,
          33.9802310043425
        ]
      }
    },
    {
      "type": "Feature",
      "properties": {
        "norad_id": 37869,
        "name": "COSMOS 2475 (743)",
        "group": "glo-ops",
        "lat": 64.03006180548385,
        "lon": -172.57331909715333,
        "alt_km": 19182.321289254167,
        "timestamp": "2025-12-22T11:33:20.700525+00:00",
        "meta_object_name": "COSMOS 2475 (743)",
        "meta_object_id": "2011-064C",
        "meta_epoch": "2025-12-21T11:20:32.914752",
        "meta_mean_motion": 2.13101692,
        "meta_eccentricity": 0.00265897,
        "meta_inclination": 65.1803,
        "meta_ra_of_asc_node": 78.9738,
        "meta_arg_of_pericenter": 248.9867,
        "meta_mean_anomaly": 155.1664,
        "meta_ephemeris_type": 0,
        "meta_classification_type": "U",
        "meta_norad_cat_id": 37869,
        "meta_element_set_no": 999,
        "meta_rev_at_epoch": 10998,
        "meta_bstar": 0,
        "meta_mean_motion_dot": -9e-08,
        "meta_mean_motion_ddot": 0,
        "tle_line1": "1 37869U 11064C   25355.47260318 -.00000009  00000+0  00000+0 0  9994",
        "tle_line2": "2 37869  65.1803  78.9738 0026589 248.9867 155.1664  2.13101692109984"
      },
      "geometry": {
        "type": "Point",
        "coordinates": [
          -172.57331909715333,
          64.03006180548385
        ]
      }
    },
    {
      "type": "Feature",
      "properties": {
        "norad_id": 39155,
        "name": "COSMOS 2485 (747)",
        "group": "glo-ops",
        "lat": 8.874605702348127,
        "lon": 83.66371396893092,
        "alt_km": 19177.521268509518,
        "timestamp": "2025-12-22T11:33:20.700536+00:00",
        "meta_object_name": "COSMOS 2485 (747)",
        "meta_object_id": "2013-019A",
        "meta_epoch": "2025-12-20T02:56:15.241632",
        "meta_mean_motion": 2.1310322,
        "meta_eccentricity": 0.0024876,
        "meta_inclination": 65.3174,
        "meta_ra_of_asc_node": 79.6189,
        "meta_arg_of_pericenter": 230.2075,
        "meta_mean_anomaly": 129.6042,
        "meta_ephemeris_type": 0,
        "meta_classification_type": "U",
        "meta_norad_cat_id": 39155,
        "meta_element_set_no": 999,
        "meta_rev_at_epoch": 9846,
        "meta_bstar": 0,
        "meta_mean_motion_dot": -2e-07,
        "meta_mean_motion_ddot": 0,
        "tle_line1": "1 39155U 13019A   25354.12239863 -.00000020  00000+0  00000+0 0  9991",
        "tle_line2": "2 39155  65.3174  79.6189 0024876 230.2075 129.6042  2.13103220 98462"
      },
      "geometry": {
        "type": "Point",
        "coordinates": [
          83.66371396893092,
          8.874605702348127
        ]
      }
    },
    {
      "type": "Feature",
      "properties": {
        "norad_id": 39620,
        "name": "COSMOS 2492 (754)",
        "group": "glo-ops",
        "lat": 37.15620478604258,
        "lon": -19.77754106535592,
        "alt_km": 19124.42933486235,
        "timestamp": "2025-12-22T11:33:20.700547+00:00",
        "meta_object_name": "COSMOS 2492 (754)",
        "meta_object_id": "2014-012A",
        "meta_epoch": "2025-12-21T22:59:34.433088",
        "meta_mean_motion": 2.13103396,
        "meta_eccentricity": 0.0014243,
        "meta_inclination": 65.4026,
        "meta_ra_of_asc_node": 319.9579,
        "meta_arg_of_pericenter": 313.3292,
        "meta_mean_anomaly": 46.5466,
        "meta_ephemeris_type": 0,
        "meta_classification_type": "U",
        "meta_norad_cat_id": 39620,
        "meta_element_set_no": 999,
        "meta_rev_at_epoch": 9146,
        "meta_bstar": 0,
        "meta_mean_motion_dot": -4.2e-07,
        "meta_mean_motion_ddot": 0,
        "tle_line1": "1 39620U 14012A   25355.95803742 -.00000042  00000+0  00000+0 0  9991",
        "tle_line2": "2 39620  65.4026 319.9579 0014243 313.3292  46.5466  2.13103396 91464"
      },
      "geometry": {
        "type": "Point",
        "coordinates": [
          -19.77754106535592,
          37.15620478604258
        ]
      }
    },
    {
      "type": "Feature",
      "properties": {
        "norad_id": 40001,
        "name": "COSMOS 2500 (755)",
        "group": "glo-ops",
        "lat": -65.33505236900925,
        "lon": -131.25882496650243,
        "alt_km": 19123.60556460955,
        "timestamp": "2025-12-22T11:33:20.700558+00:00",
        "meta_object_name": "COSMOS 2500 (755)",
        "meta_object_id": "2014-032A",
        "meta_epoch": "2025-12-21T04:35:55.026240",
        "meta_mean_motion": 2.13106227,
        "meta_eccentricity": 0.00077299,
        "meta_inclination": 65.3386,
        "meta_ra_of_asc_node": 319.7453,
        "meta_arg_of_pericenter": 219.3736,
        "meta_mean_anomaly": 140.5635,
        "meta_ephemeris_type": 0,
        "meta_classification_type": "U",
        "meta_norad_cat_id": 40001,
        "meta_element_set_no": 999,
        "meta_rev_at_epoch": 8966,
        "meta_bstar": 0,
        "meta_mean_motion_dot": -4.7e-07,
        "meta_mean_motion_ddot": 0,
        "tle_line1": "1 40001U 14032A   25355.19160910 -.00000047  00000+0  00000+0 0  9992",
        "tle_line2": "2 40001  65.3386 319.7453 0007729 219.3736 140.5635  2.13106227 89663"
      },
      "geometry": {
        "type": "Point",
        "coordinates": [
          -131.25882496650243,
          -65.33505236900925
        ]
      }
    },
    {
      "type": "Feature",
      "properties": {
        "norad_id": 40315,
        "name": "COSMOS 2501 (702K)",
        "group": "glo-ops",
        "lat": 57.2909997435129,
        "lon": -112.84535622344801,
        "alt_km": 19159.303639901667,
        "timestamp": "2025-12-22T11:33:20.700585+00:00",
        "meta_object_name": "COSMOS 2501 (702K)",
        "meta_object_id": "2014-075A",
        "meta_epoch": "2025-12-19T02:31:27.452640",
        "meta_mean_motion": 2.13101513,
        "meta_eccentricity": 0.0020099,
        "meta_inclination": 63.6146,
        "meta_ra_of_asc_node": 196.6046,
        "meta_arg_of_pericenter": 204.1838,
        "meta_mean_anomaly": 155.7988,
        "meta_ephemeris_type": 0,
        "meta_classification_type": "U",
        "meta_norad_cat_id": 40315,
        "meta_element_set_no": 999,
        "meta_rev_at_epoch": 8601,
        "meta_bstar": 0,
        "meta_mean_motion_dot": 1.06e-06,
        "meta_mean_motion_ddot": 0,
        "tle_line1": "1 40315U 14075A   25353.10517885  .00000106  00000+0  00000+0 0  9998",
        "tle_line2": "2 40315  63.6146 196.6046 0020099 204.1838 155.7988  2.13101513 86014"
      },
      "geometry": {
        "type": "Point",
        "coordinates": [
          -112.84535622344801,
          57.2909997435129
        ]
      }
    }
  ]
}